[Satellite]
VERSION=1.1
NAME=GPS BIIF-3  (PRN 24)
NICKNAME=GPS BIIF-3  (PRN 24)
TLE1=1 38833U 12053A   19317.18852041  .00000008  00000-0  00000+0 0  9993
TLE2=2 38833  53.7191 242.2859 0089229  34.4222 326.1752  2.00563465 52039
STATUS=0
